1 43466U 98067NP  19148.27853652  .00016924  00000-0  17102-3 0  9990
2 43466  51.6373  83.0581 0002032  68.3377 291.7835 15.65448344 59560